[{"OBJECT_NAME":"TPA-1","OBJECT_ID":"2025-135F","EPOCH":"2026-03-09T20:51:31.425408","MEAN_MOTION":15.20645482,"ECCENTRICITY":0.00056519,"INCLINATION":97.4555,"RA_OF_ASC_NODE":184.7205,"ARG_OF_PERICENTER":162.0288,"MEAN_ANOMALY":198.1148,"EPHEMERIS_TYPE":0,"CLASSIFICATION_TYPE":"U","NORAD_CAT_ID":64533,"ELEMENT_SET_NO":999,"REV_AT_EPOCH":3975,"BSTAR":0.00027699607,"MEAN_MOTION_DOT":6.013e-5,"MEAN_MOTION_DDOT":0},{"OBJECT_NAME":"PHI 1","OBJECT_ID":"2025-276DP","EPOCH":"2026-03-09T17:39:12.133440","MEAN_MOTION":15.19973113,"ECCENTRICITY":0.00029619,"INCLINATION":97.4203,"RA_OF_ASC_NODE":144.0831,"ARG_OF_PERICENTER":121.0034,"MEAN_ANOMALY":239.1492,"EPHEMERIS_TYPE":0,"CLASSIFICATION_TYPE":"U","NORAD_CAT_ID":66775,"ELEMENT_SET_NO":999,"REV_AT_EPOCH":1533,"BSTAR":0.00038773813,"MEAN_MOTION_DOT":8.281e-5,"MEAN_MOTION_DDOT":0}]
