TPA-1                   
1 64533U 25135F   26068.86911372  .00006013  00000+0  27700-3 0  9994
2 64533  97.4555 184.7205 0005652 162.0288 198.1148 15.20645482 39753
PHI 1                   
1 66775U 25276DP  26068.73555710  .00008281  00000+0  38774-3 0  9998
2 66775  97.4203 144.0831 0002962 121.0034 239.1492 15.19973113 15331
